{"fetched_at":"2026-03-30T06:02:59Z","count":15439,"tles":[{"name":"STARLINK-4712","line1":"1 53798U 22111AB  26087.71311938 -.00000044  00000+0  15296-4 0  9990","line2":"2 53798  53.2177 188.3255 0001280  89.6010 270.5129 15.08836791196556","category":"Starlink"}]}